OBJECT_NAME,OBJECT_ID,EPOCH,MEAN_MOTION,ECCENTRICITY,INCLINATION,RA_OF_ASC_NODE,ARG_OF_PERICENTER,MEAN_ANOMALY,EPHEMERIS_TYPE,CLASSIFICATION_TYPE,NORAD_CAT_ID,ELEMENT_SET_NO,REV_AT_EPOCH,BSTAR,MEAN_MOTION_DOT,MEAN_MOTION_DDOT
STARLINK-36842,2026-035F,2026-07-21T01:29:11.257440,15.33457761,.00016519,97.2838,134.7196,97.6495,262.4935,0,U,67884,999,2442,.33146704E-3,.10645E-3,0
STARLINK-36826,2026-035G,2026-07-20T18:57:39.487968,15.33460593,.00018103,97.2829,134.4764,93.4859,266.6591,0,U,67885,999,2438,.53413149E-3,.17217E-3,0
STARLINK-36390,2026-035H,2026-07-21T01:25:16.297824,15.33458681,.00015161,97.2835,134.7237,98.8170,261.3245,0,U,67886,999,2442,.34932087E-3,.11224E-3,0
STARLINK-36368,2026-035J,2026-07-20T18:26:20.313024,15.33457136,.00018167,97.2829,134.5091,92.9974,267.1476,0,U,67887,999,2438,.8047111E-3,.26004E-3,0
STARLINK-36801,2026-035K,2026-07-20T18:30:15.077376,15.33440062,.00013035,97.2829,134.5055,103.4078,256.7310,0,U,67888,999,2438,.61044769E-3,.19681E-3,0
STARLINK-36372,2026-035L,2026-07-20T18:38:05.018208,15.33456968,.00021738,97.2833,134.4980,101.9300,258.2187,0,U,67889,999,2438,.50108601E-3,.16143E-3,0
STARLINK-36363,2026-035M,2026-07-21T05:59:20.838336,15.33453350,.00013069,97.2837,134.9244,98.1757,261.9634,0,U,67890,999,2445,.30220013E-3,.9696E-4,0
STARLINK-36816,2026-035N,2026-07-20T19:22:58.448352,15.33406212,.0002477,97.2831,133.5436,91.1903,268.9623,0,U,67891,999,2432,.80565006E-3,.25994E-3,0
STARLINK-36813,2026-035P,2026-07-21T01:40:58.043136,15.33409380,.00027432,97.2813,134.8640,94.5782,265.5774,0,U,67892,999,2443,-.22188356E-4,-.791E-5,0
STARLINK-36803,2026-035Q,2026-07-20T19:36:48.633120,15.33453038,.00017117,97.2835,134.5920,98.4947,261.6490,0,U,67893,999,2439,.28474878E-3,.9131E-4,0
STARLINK-36846,2026-035R,2026-07-20T19:05:29.440896,15.33456190,.00019774,97.2832,134.4708,91.0869,269.0601,0,U,67894,999,2438,.5074724E-3,.1635E-3,0
STARLINK-36866,2026-035S,2026-07-20T18:49:49.873728,15.33444427,.00016792,97.2831,134.4856,96.9154,263.2280,0,U,67895,999,2438,.40165139E-3,.12914E-3,0
STARLINK-36877,2026-035T,2026-07-21T02:00:30.625056,15.33491200,.00018439,97.2829,134.8448,93.5570,266.5884,0,U,67896,999,2443,.55399954E-3,.17879E-3,0
STARLINK-36870,2026-035U,2026-07-20T19:52:28.366176,15.33459835,.00019466,97.2835,134.5817,99.0381,261.1082,0,U,67897,999,2439,.49316033E-3,.15887E-3,0
STARLINK-36810,2026-035V,2026-07-20T18:34:10.071552,15.33459390,.00022118,97.2823,134.5015,101.4020,258.7472,0,U,67898,999,2438,.51089865E-3,.16463E-3,0
STARLINK-36878,2026-035W,2026-07-20T19:28:58.892736,15.33451810,.00016741,97.2827,134.5993,87.9706,272.1729,0,U,67899,999,2439,.27935969E-3,.8957E-4,0
STARLINK-36361,2026-035X,2026-07-21T01:48:45.772128,15.33457663,.00013915,97.2840,134.8555,95.3139,264.8262,0,U,67900,999,2443,.4331893E-3,.13941E-3,0
STARLINK-36336,2026-035Y,2026-07-21T02:12:15.486624,15.33460452,.00018127,97.2826,134.8323,85.2899,274.8550,0,U,67901,999,2443,.57815404E-3,.18646E-3,0
STARLINK-36876,2026-035Z,2026-07-21T01:56:35.623968,15.33462544,.00015529,97.2835,134.8498,90.5022,269.6399,0,U,67902,999,2443,.39129734E-3,.12586E-3,0
STARLINK-36257,2026-035AA,2026-07-21T02:43:34.838688,15.33454849,.00013823,97.2836,134.8040,102.8794,257.2603,0,U,67903,999,2443,.48162161E-3,.1551E-3,0
STARLINK-36814,2026-036A,2026-07-20T17:26:01.612320,15.27576399,.00012794,42.9977,214.3748,23.0517,337.0392,0,U,67904,999,2406,.29713264E-3,.7922E-4,0
STARLINK-36729,2026-036B,2026-07-21T01:13:05.790144,15.27590067,.00010773,42.9975,212.4914,283.1525,76.9207,0,U,67905,999,2411,.3483169E-3,.9338E-4,0
STARLINK-36763,2026-036C,2026-07-21T07:24:10.050624,15.27587129,.0001431,42.9993,210.9847,277.7646,82.3044,0,U,67906,999,2415,.39239934E-3,.10554E-3,0
STARLINK-36742,2026-036D,2026-07-20T09:20:25.569312,15.27588817,.00009983,42.9991,216.1252,276.0447,84.0290,0,U,67907,999,2401,.23087797E-3,.6098E-4,0
STARLINK-36827,2026-036E,2026-07-21T07:13:03.809856,15.27587855,.00020489,42.9987,210.9185,282.7334,77.3289,0,U,67908,999,2415,.38443891E-3,.10334E-3,0
STARLINK-36822,2026-036F,2026-07-21T07:07:30.662688,15.27585578,.00018376,43.0003,210.8951,265.0710,94.9932,0,U,67909,999,2415,.69775894E-3,.18992E-3,0
STARLINK-36847,2026-036G,2026-07-21T02:19:29.604288,15.27582616,.00018464,43.0014,211.9736,276.0018,84.0623,0,U,67910,999,2412,.31591422E-3,.8442E-4,0
STARLINK-36736,2026-036H,2026-07-20T08:54:30.977568,15.27593169,.00020565,43.0038,215.9779,280.4445,79.6175,0,U,67911,999,2401,.26706446E-3,.7097E-4,0
STARLINK-36676,2026-036J,2026-07-21T02:04:42.348864,15.27588688,.00016494,43.0028,211.8876,279.6164,80.4502,0,U,67912,999,2412,.36118979E-3,.9693E-4,0
STARLINK-36690,2026-036K,2026-07-21T01:59:08.228832,15.27589449,.00016795,42.9999,211.8552,299.9524,60.1161,0,U,67913,999,2412,.49308944E-3,.13335E-3,0
STARLINK-36724,2026-036L,2026-07-21T01:44:19.837248,15.27591836,.00011453,42.9990,211.7741,212.2058,147.8724,0,U,67914,999,2412,.55622277E-3,.15081E-3,0
STARLINK-36723,2026-036M,2026-07-21T01:53:35.055744,15.27592267,.00025865,43.0095,211.8204,274.4226,85.6331,0,U,67915,999,2412,.40162348E-3,.1081E-3,0
STARLINK-36721,2026-036N,2026-07-21T01:38:45.490848,15.27625968,.00016603,42.9995,211.7441,274.6798,85.3864,0,U,67916,999,2412,.82747306E-3,.2261E-3,0
STARLINK-36722,2026-036P,2026-07-21T01:33:13.398624,15.27600858,.00005452,42.9967,211.7077,287.3898,72.6894,0,U,67917,999,2412,.34196563E-3,.9166E-4,0
STARLINK-36341,2026-036Q,2026-07-21T01:18:38.812032,15.27586656,.00011058,42.9984,212.5252,236.5368,123.5378,0,U,67918,999,2411,.63689835E-3,.17309E-3,0
STARLINK-36663,2026-036R,2026-07-21T01:27:40.747392,15.27584665,.00013125,42.9990,211.6844,277.9680,82.1022,0,U,67919,999,2412,.25608739E-3,.6792E-4,0
STARLINK-36375,2026-036S,2026-07-21T07:26:01.040928,15.27587131,.00013842,42.9995,210.9860,273.4286,86.6407,0,U,67920,999,2415,.41106437E-3,.11069E-3,0
STARLINK-36405,2026-036T,2026-07-21T01:03:50.794560,15.27593125,.00012583,42.9982,212.4464,270.3408,89.7300,0,U,67921,999,2411,.41184763E-3,.11093E-3,0
STARLINK-36406,2026-036V,2026-07-20T21:44:25.798560,15.27583171,.00018235,42.9989,213.1329,268.4562,91.6080,0,U,67923,999,2409,.33362582E-3,.8931E-4,0
STARLINK-36714,2026-036W,2026-07-21T02:21:20.268864,15.27597774,.00017528,43.0012,211.9752,267.0418,93.0233,0,U,67924,999,2412,.5235956E-3,.14182E-3,0
STARLINK-36726,2026-036X,2026-07-21T02:12:05.554080,15.27583688,.00020392,43.0023,211.9399,279.3062,80.7559,0,U,67925,999,2412,.26432178E-3,.7019E-4,0
STARLINK-36758,2026-036Y,2026-07-20T10:25:00.083136,15.27551581,.00024436,43.0044,215.5940,278.4610,81.5965,0,U,67926,999,2402,.31048117E-3,.8284E-4,0
STARLINK-36728,2026-036Z,2026-07-21T01:55:26.210208,15.27584276,.00012746,43.0023,211.8319,261.9013,98.1694,0,U,67927,999,2412,.53996979E-3,.14628E-3,0
STARLINK-36771,2026-036AA,2026-07-21T02:00:58.937472,15.27603044,.00016244,43.0014,211.8662,271.7426,88.3240,0,U,67928,999,2412,.32165512E-3,.8606E-4,0
STARLINK-36809,2026-036AB,2026-07-21T00:15:43.812000,15.27591366,.00007844,43.0002,212.1755,287.1358,72.9408,0,U,67929,999,2411,.69222612E-3,.18842E-3,0
STARLINK-36865,2026-036AC,2026-07-21T01:35:04.651584,15.27590352,.00009909,42.9966,211.7165,275.0841,84.9898,0,U,67930,999,2412,.33207752E-3,.889E-4,0
STARLINK-36781,2026-036AD,2026-07-21T01:40:37.852320,15.27575275,.00013977,42.9996,211.7510,278.6066,81.4627,0,U,67931,999,2412,.3006253E-3,.8018E-4,0
STARLINK-36301,2026-037A,2026-07-20T23:57:58.644288,15.27575810,.00009991,42.9991,158.2823,225.6779,134.3990,0,U,67932,999,2372,.12839402E-2,.35233E-3,0
STARLINK-36852,2026-037B,2026-07-20T22:18:16.097472,15.27592385,.00009005,42.9988,158.6493,240.5846,119.4916,0,U,67933,999,2371,.37205868E-3,.9994E-4,0
STARLINK-36861,2026-037C,2026-07-21T04:29:20.600736,15.27585182,.0000517,42.9986,157.1257,246.8758,113.2039,0,U,67934,999,2375,.38410089E-3,.10324E-3,0
STARLINK-36860,2026-037D,2026-07-21T05:57:57.004416,15.27591278,.00015195,43.0031,156.7403,271.2806,88.7872,0,U,67935,999,2376,.4601128E-3,.12425E-3,0
STARLINK-36848,2026-037E,2026-07-20T23:30:12.333888,15.27585816,.00013889,43.0009,158.1626,234.1247,125.9476,0,U,67936,999,2372,.36135053E-3,.9696E-4,0
STARLINK-36370,2026-037F,2026-07-20T23:35:47.641920,15.27564349,.00002928,43.0000,158.1884,230.9312,129.1514,0,U,67937,999,2372,.99475557E-4,.2475E-4,0
STARLINK-36371,2026-037G,2026-07-20T14:01:33.556224,15.27594319,.0003955,42.9993,160.3440,261.9932,98.0471,0,U,67938,999,2366,.24296E-3,.6433E-4,0
STARLINK-36246,2026-037H,2026-07-20T13:56:01.788000,15.27586233,.0001061,42.9979,160.3250,272.7264,87.3466,0,U,67939,999,2366,.36954E-3,.9922E-4,0
STARLINK-36907,2026-037J,2026-07-21T06:49:32.536704,15.27584196,.00011561,43.0004,156.1275,265.7592,94.3127,0,U,67940,999,2377,.23297687E-3,.6155E-4,0
STARLINK-36927,2026-037K,2026-07-21T05:06:07.960896,15.27593086,.0001564,43.0009,156.4528,271.0943,88.9730,0,U,67941,999,2376,.51338718E-3,.13897E-3,0
STARLINK-36914,2026-037L,2026-07-20T23:15:24.677568,15.27588457,.00011171,42.9966,158.0544,270.9000,89.1724,0,U,67942,999,2372,.37764947E-3,.10147E-3,0
STARLINK-36851,2026-037M,2026-07-20T07:22:44.909472,15.27585735,.00012941,43.0006,161.6994,270.8548,89.2155,0,U,67943,999,2362,.288073E-3,.7675E-4,0
STARLINK-36892,2026-037N,2026-07-21T06:45:50.434272,15.27600134,.00013218,43.0010,156.1095,264.6365,95.4336,0,U,67944,999,2377,.45433118E-3,.12269E-3,0
STARLINK-36908,2026-037P,2026-07-21T06:34:44.082912,15.27588055,.00016668,43.0005,156.0481,268.8735,91.1926,0,U,67945,999,2377,.37952586E-3,.10199E-3,0
STARLINK-36909,2026-037Q,2026-07-21T04:55:00.805152,15.27613998,.00014841,43.0004,156.3773,269.1271,90.9411,0,U,67946,999,2376,.43063715E-3,.11619E-3,0
STARLINK-36920,2026-037R,2026-07-21T04:49:28.386336,15.27589005,.00021491,43.0026,156.3642,261.1683,98.8925,0,U,67947,999,2376,.30270429E-3,.8079E-4,0
STARLINK-36873,2026-037S,2026-07-20T22:29:09.197664,15.27591376,.00010217,42.9996,157.8216,261.0374,99.0362,0,U,67948,999,2372,.62971367E-3,.17112E-3,0
